[{"OBJECT_NAME":"STARLINK-35957","OBJECT_ID":"2025-280C","EPOCH":"2026-03-09T22:09:10.953216","MEAN_MOTION":14.98331638,"ECCENTRICITY":0.00018765,"INCLINATION":70.0036,"RA_OF_ASC_NODE":333.7557,"ARG_OF_PERICENTER":245.3826,"MEAN_ANOMALY":114.7138,"EPHEMERIS_TYPE":0,"CLASSIFICATION_TYPE":"U","NORAD_CAT_ID":66823,"ELEMENT_SET_NO":999,"REV_AT_EPOCH":1611,"BSTAR":0.00065365909,"MEAN_MOTION_DOT":7.715e-5,"MEAN_MOTION_DDOT":0},{"OBJECT_NAME":"CZ-6A DEB","OBJECT_ID":"2024-140EZ","EPOCH":"2026-03-09T16:13:02.096544","MEAN_MOTION":15.06200416,"ECCENTRICITY":0.00757943,"INCLINATION":89.319,"RA_OF_ASC_NODE":303.8689,"ARG_OF_PERICENTER":93.3463,"MEAN_ANOMALY":267.6449,"EPHEMERIS_TYPE":0,"CLASSIFICATION_TYPE":"U","NORAD_CAT_ID":60774,"ELEMENT_SET_NO":999,"REV_AT_EPOCH":8499,"BSTAR":0.003121721,"MEAN_MOTION_DOT":0.00049072,"MEAN_MOTION_DDOT":0}]
